GLOBALSTAR M068         
1 32266U 07048D   24302.42397047 -.00000042  00000+0  34072-3 0  9990
2 32266  51.9886 288.7393 0001152   5.9511 159.1857 12.62805300788273
GLOBALSTAR M079         
1 37188U 10054A   24302.47507020 -.00000056  00000+0  26622-3 0  9995
2 37188  52.0013 125.1554 0001152 102.9573 274.3651 12.62266520647196
GLOBALSTAR M074         
1 37189U 10054B   24302.58576830 -.00000078  00000+0  14491-3 0  9998
2 37189  51.9990 124.1727 0000757  97.0834 305.9529 12.62258331647819
GLOBALSTAR M076         
1 37190U 10054C   24302.53198144 -.00000040  00000+0  35618-3 0  9996
2 37190  52.0004 124.4924 0000887 115.8312 278.9696 12.62272924647521
GLOBALSTAR M077         
1 37191U 10054D   24302.44022959 -.00000081  00000+0  12605-3 0  9993
2 37191  52.0068  81.5579 0000789 104.4875 293.9470 12.62265999647880
GLOBALSTAR M075         
1 37192U 10054E   24302.62222818 -.00000058  00000+0  25331-3 0  9994
2 37192  51.9926 166.6024 0000793  82.2147 304.7526 12.62268297646608
GLOBALSTAR M073         
1 37193U 10054F   24302.38472507 -.00000099  00000+0  24550-4 0  9998
2 37193  52.0057  80.9637 0000835 114.2602 272.6477 12.62271633648566
GLOBALSTAR M083         
1 37739U 11033A   24302.55330391 -.00000071  00000+0  18404-3 0  9995
2 37739  51.9884  29.4996 0000764 104.5908 269.0894 12.62266911617603
GLOBALSTAR M088         
1 37740U 11033B   24302.39752227 -.00000061  00000+0  24062-3 0  9991
2 37740  51.9738 295.6614 0000536  71.8341  74.5069 12.62264111613127
GLOBALSTAR M091         
1 37741U 11033C   24302.33381200 -.00000083  00000+0  11732-3 0  9999
2 37741  51.9995 258.9978 0000856  67.5956  87.3561 12.62269289613903
GLOBALSTAR M085         
1 37742U 11033D   24302.48233201 -.00000074  00000+0  16344-3 0  9997
2 37742  51.9859 209.7876 0001032  71.9903  99.4554 12.62268176614431
GLOBALSTAR M081         
1 37743U 11033E   24302.56374800 -.00000079  00000+0  13837-3 0  9997
2 37743  51.9953 212.1834 0000978  85.5516 336.2951 12.62262444614590
GLOBALSTAR M089         
1 37744U 11033F   24302.59719979 -.00000062  00000+0  23227-3 0  9997
2 37744  51.9909 166.3557 0000637  97.5437 294.9099 12.62271478615446
GLOBALSTAR M084         
1 38040U 11080A   24302.63392921 -.00000076  00000+0  15628-3 0  9999
2 38040  52.0035  33.4049 0000332 136.5004   3.5379 12.62269218593421
GLOBALSTAR M080         
1 38041U 11080B   24302.77430049 -.00000083  00000+0  11664-3 0  9993
2 38041  52.0082  34.5036 0000576 160.0309  17.7667 12.62267310593701
GLOBALSTAR M082         
1 38042U 11080C   24302.62634594 -.00000050  00000+0  29899-3 0  9992
2 38042  52.0100 350.3778 0000795  68.5317  96.8209 12.62268528594252
GLOBALSTAR M092         
1 38043U 11080D   24302.41240538 -.00000075  00000+0  16028-3 0  9998
2 38043  52.0079  81.3891 0000685  98.6096 294.2311 12.62268438592684
GLOBALSTAR M090         
1 38044U 11080E   24302.38162834 -.00000055  00000+0  27243-3 0  9996
2 38044  51.9908 345.2294 0000600  81.8984 291.1996 12.62269495594344
GLOBALSTAR M086         
1 38045U 11080F   24302.50469580 -.00000065  00000+0  21465-3 0  9990
2 38045  51.9920 345.3872 0001107 148.2012 304.9904 12.62268953594301
GLOBALSTAR M097         
1 39072U 13005A   24302.59014194 -.00000092  00000+0  63847-4 0  9997
2 39072  52.0041 259.4393 0000756  79.7375 280.3577 12.62272379541560
GLOBALSTAR M093         
1 39073U 13005B   24302.56340122 -.00000083  00000+0  11446-3 0  9995
2 39073  51.9806 253.1922 0000866  74.2251 285.8711 12.62266347541515
GLOBALSTAR M094         
1 39074U 13005C   24302.56343920 -.00000072  00000+0  18007-3 0  9993
2 39074  51.9936 167.3432 0001167  90.0879 270.0121 12.62264376543129
GLOBALSTAR M096         
1 39075U 13005D   24302.49740608 -.00000054  00000+0  28029-3 0  9995
2 39075  52.0066 215.8770 0001034  75.9165 284.1817 12.62263517542036
GLOBALSTAR M078         
1 39076U 13005E   24302.47060713 -.00000076  00000+0  15683-3 0  9992
2 39076  51.9876 300.7815 0001297  39.7956 320.3006 12.62276756540653
GLOBALSTAR M095         
1 39077U 13005F   24302.33911457 -.00000071  00000+0  18292-3 0  9992
2 39077  51.9801 298.4968 0001008  65.2940 294.8032 12.62266987540492
GLOBALSTAR M087         
1 52888U 22064A   24302.56297334 -.00000081  00000+0  90276-4 0  9992
2 52888  51.9745 103.2975 0009036 348.2529  11.8159 13.37591205115370
